{
  "type": "FeatureCollection",
  "features": [
    {
      "type": "Feature",
      "properties": {
        "name": "Distrito de Leiria"
      },
      "geometry": {
        "type": "Polygon",
        "coordinates": [
          [
            [-9.55, 39.10],
            [-9.45, 39.35],
            [-9.25, 39.55],
            [-9.05, 39.75],
            [-8.95, 40.05],
            [-8.65, 40.20],
            [-8.35, 40.15],
            [-8.15, 39.95],
            [-8.25, 39.65],
            [-8.45, 39.40],
            [-8.75, 39.20],
            [-9.10, 39.05],
            [-9.55, 39.10]
          ]
        ]
      }
    }
  ]
}

